{"type": "FeatureCollection", "features": [ {"type": "Feature", "properties": {"norad_id": 66875, "name": "STARLINK-36053", "group": "last-30-days", "lat": -41.7446019130245, "lon": 43.81185265359017, "alt_km": 305.4118066974579, "timestamp": "2025-12-13T13:34:33.866188+00:00", "meta": {"OBJECT_NAME": "STARLINK-36053", "OBJECT_ID": "2025-281AD", "EPOCH": "2025-12-12T20:00:01.999872", "MEAN_MOTION": 15.91608431, "ECCENTRICITY": 0.00016622, "INCLINATION": 43.0009, "RA_OF_ASC_NODE": 121.6185, "ARG_OF_PERICENTER": 282.6232, "MEAN_ANOMALY": 121.3514, "EPHEMERIS_TYPE": 0, "CLASSIFICATION_TYPE": "U", "NORAD_CAT_ID": 66875, "ELEMENT_SET_NO": 999, "REV_AT_EPOCH": 145, "BSTAR": -0.0043620989, "MEAN_MOTION_DOT": -0.01466018, "MEAN_MOTION_DDOT": 0.00060613255}, "tle": {"line1": "1 66875U 25281AD  25346.83335648 -.01466018  60613-3 -43621-2 0  9995", "line2": "2 66875  43.0009 121.6185 0001662 282.6232 121.3514 15.91608431  1459"}}, "geometry": {"type": "Point", "coordinates": [43.81185265359017, -41.7446019130245]}}, {"type": "Feature", "properties": {"norad_id": 66876, "name": "STARLINK-35702", "group": "last-30-days", "lat": -42.54501007177966, "lon": 37.060954076781975, "alt_km": 305.5221428324512, "timestamp": "2025-12-13T13:34:33.866197+00:00", "meta": {"OBJECT_NAME": "STARLINK-35702", "OBJECT_ID": "2025-281AE", "EPOCH": "2025-12-12T20:00:01.999872", "MEAN_MOTION": 15.91534716, "ECCENTRICITY": 0.00017853, "INCLINATION": 43.0012, "RA_OF_ASC_NODE": 121.6318, "ARG_OF_PERICENTER": 282.72, "MEAN_ANOMALY": 116.332, "EPHEMERIS_TYPE": 0, "CLASSIFICATION_TYPE": "U", "NORAD_CAT_ID": 66876, "ELEMENT_SET_NO": 999, "REV_AT_EPOCH": 145, "BSTAR": -0.0043220668, "MEAN_MOTION_DOT": -0.01447278, "MEAN_MOTION_DDOT": 0.00059157727}, "tle": {"line1": "1 66876U 25281AE  25346.83335648 -.01447278  59158-3 -43221-2 0  9991", "line2": "2 66876  43.0012 121.6318 0001785 282.7200 116.3320 15.91534716  1457"}}, "geometry": {"type": "Point", "coordinates": [37.060954076781975, -42.54501007177966]}}, {"type": "Feature", "properties": {"norad_id": 66877, "name": "ZQ-3 R/B", "group": "last-30-days", "lat": -10.043883741188445, "lon": 47.89108048805317, "alt_km": 989.5320755368257, "timestamp": "2025-12-13T13:34:33.866206+00:00", "meta": {"OBJECT_NAME": "ZQ-3 R/B", "OBJECT_ID": "2025-282A", "EPOCH": "2025-12-12T12:59:05.830944", "MEAN_MOTION": 14.58437511, "ECCENTRICITY": 0.07834735, "INCLINATION": 56.9522, "RA_OF_ASC_NODE": 58.4389, "ARG_OF_PERICENTER": 219.6051, "MEAN_ANOMALY": 134.5165, "EPHEMERIS_TYPE": 0, "CLASSIFICATION_TYPE": "U", "NORAD_CAT_ID": 66877, "ELEMENT_SET_NO": 999, "REV_AT_EPOCH": 136, "BSTAR": 0.00027505499, "MEAN_MOTION_DOT": 0.01370702, "MEAN_MOTION_DDOT": 7.4503e-06}, "tle": {"line1": "1 66877U 25282A   25346.54103971  .01370702  74503-5  27505-3 0  9999", "line2": "2 66877  56.9522  58.4389 0783473 219.6051 134.5165 14.58437511  1362"}}, "geometry": {"type": "Point", "coordinates": [47.89108048805317, -10.043883741188445]}}, {"type": "Feature", "properties": {"norad_id": 66878, "name": "STARLINK-35866", "group": "last-30-days", "lat": -49.49871207538689, "lon": -48.81590278718402, "alt_km": 301.2434675966324, "timestamp": "2025-12-13T13:34:33.866217+00:00", "meta": {"OBJECT_NAME": "STARLINK-35866", "OBJECT_ID": "2025-283A", "EPOCH": "2025-12-12T20:00:01.999872", "MEAN_MOTION": 15.94056149, "ECCENTRICITY": 8.902e-05, "INCLINATION": 53.1549, "RA_OF_ASC_NODE": 73.5258, "ARG_OF_PERICENTER": 57.5648, "MEAN_ANOMALY": 311.7036, "EPHEMERIS_TYPE": 0, "CLASSIFICATION_TYPE": "U", "NORAD_CAT_ID": 66878, "ELEMENT_SET_NO": 999, "REV_AT_EPOCH": 244, "BSTAR": -0.0033130057, "MEAN_MOTION_DOT": -0.01252273, "MEAN_MOTION_DDOT": 0.00046976189}, "tle": {"line1": "1 66878U 25283A   25346.83335648 -.01252273  46976-3 -33130-2 0  9996", "line2": "2 66878  53.1549  73.5258 0000890  57.5648 311.7036 15.94056149  2441"}}, "geometry": {"type": "Point", "coordinates": [-48.81590278718402, -49.49871207538689]}}, {"type": "Feature", "properties": {"norad_id": 66879, "name": "STARLINK-35749", "group": "last-30-days", "lat": -51.06370672286837, "lon": -42.07633885523728, "alt_km": 301.06591556360854, "timestamp": "2025-12-13T13:34:33.866226+00:00", "meta": {"OBJECT_NAME": "STARLINK-35749", "OBJECT_ID": "2025-283B", "EPOCH": "2025-12-12T20:00:01.999872", "MEAN_MOTION": 15.94183877, "ECCENTRICITY": 9.7e-05, "INCLINATION": 53.1548, "RA_OF_ASC_NODE": 73.5167, "ARG_OF_PERICENTER": 58.7168, "MEAN_ANOMALY": 314.8573, "EPHEMERIS_TYPE": 0, "CLASSIFICATION_TYPE": "U", "NORAD_CAT_ID": 66879, "ELEMENT_SET_NO": 999, "REV_AT_EPOCH": 244, "BSTAR": -0.0033590592, "MEAN_MOTION_DOT": -0.01278043, "MEAN_MOTION_DDOT": 0.00048812673}, "tle": {"line1": "1 66879U 25283B   25346.83335648 -.01278043  48813-3 -33591-2 0  9993", "line2": "2 66879  53.1548  73.5167 0000970  58.7168 314.8573 15.94183877  2448"}}, "geometry": {"type": "Point", "coordinates": [-42.07633885523728, -51.06370672286837]}}, {"type": "Feature", "properties": {"norad_id": 66880, "name": "STARLINK-35844", "group": "last-30-days", "lat": -50.288126970094886, "lon": -45.681780235813314, "alt_km": 301.1780171308974, "timestamp": "2025-12-13T13:34:33.866235+00:00", "meta": {"OBJECT_NAME": "STARLINK-35844", "OBJECT_ID": "2025-283C", "EPOCH": "2025-12-12T20:00:01.999872", "MEAN_MOTION": 15.94113288, "ECCENTRICITY": 9.618e-05, "INCLINATION": 53.155, "RA_OF_ASC_NODE": 73.5217, "ARG_OF_PERICENTER": 59.7367, "MEAN_ANOMALY": 311.5667, "EPHEMERIS_TYPE": 0, "CLASSIFICATION_TYPE": "U", "NORAD_CAT_ID": 66880, "ELEMENT_SET_NO": 999, "REV_AT_EPOCH": 244, "BSTAR": -0.0033193997, "MEAN_MOTION_DOT": -0.01258445, "MEAN_MOTION_DDOT": 0.00047425318}, "tle": {"line1": "1 66880U 25283C   25346.83335648 -.01258445  47425-3 -33194-2 0  9996", "line2": "2 66880  53.1550  73.5217 0000961  59.7367 311.5667 15.94113288  2448"}}, "geometry": {"type": "Point", "coordinates": [-45.681780235813314, -50.288126970094886]}}, {"type": "Feature", "properties": {"norad_id": 66881, "name": "STARLINK-35860", "group": "last-30-days", "lat": -51.579384038988444, "lon": -39.24420790571427, "alt_km": 301.0519311396156, "timestamp": "2025-12-13T13:34:33.866245+00:00", "meta": {"OBJECT_NAME": "STARLINK-35860", "OBJECT_ID": "2025-283D", "EPOCH": "2025-12-12T20:00:01.999872", "MEAN_MOTION": 15.94233686, "ECCENTRICITY": 0.00010737, "INCLINATION": 53.1548, "RA_OF_ASC_NODE": 73.513, "ARG_OF_PERICENTER": 49.9904, "MEAN_ANOMALY": 325.3025, "EPHEMERIS_TYPE": 0, "CLASSIFICATION_TYPE": "U", "NORAD_CAT_ID": 66881, "ELEMENT_SET_NO": 999, "REV_AT_EPOCH": 244, "BSTAR": -0.0033557575, "MEAN_MOTION_DOT": -0.01280167, "MEAN_MOTION_DDOT": 0.00048985117}, "tle": {"line1": "1 66881U 25283D   25346.83335648 -.01280167  48985-3 -33558-2 0  9999", "line2": "2 66881  53.1548  73.5130 0001073  49.9904 325.3025 15.94233686  2449"}}, "geometry": {"type": "Point", "coordinates": [-39.24420790571427, -51.579384038988444]}}, {"type": "Feature", "properties": {"norad_id": 66882, "name": "STARLINK-35912", "group": "last-30-days", "lat": -52.088265558553374, "lon": -35.89573040097674, "alt_km": 300.8809860888814, "timestamp": "2025-12-13T13:34:33.866254+00:00", "meta": {"OBJECT_NAME": "STARLINK-35912", "OBJECT_ID": "2025-283E", "EPOCH": "2025-12-12T20:00:01.999872", "MEAN_MOTION": 15.94286093, "ECCENTRICITY": 0.00010527, "INCLINATION": 53.1549, "RA_OF_ASC_NODE": 73.5091, "ARG_OF_PERICENTER": 49.4034, "MEAN_ANOMALY": 327.8815, "EPHEMERIS_TYPE": 0, "CLASSIFICATION_TYPE": "U", "NORAD_CAT_ID": 66882, "ELEMENT_SET_NO": 999, "REV_AT_EPOCH": 244, "BSTAR": -0.0033359017, "MEAN_MOTION_DOT": -0.01276195, "MEAN_MOTION_DDOT": 0.00048734213}, "tle": {"line1": "1 66882U 25283E   25346.83335648 -.01276195  48734-3 -33359-2 0  9997", "line2": "2 66882  53.1549  73.5091 0001052  49.4034 327.8815 15.94286093  2447"}}, "geometry": {"type": "Point", "coordinates": [-35.89573040097674, -52.088265558553374]}}, {"type": "Feature", "properties": {"norad_id": 66883, "name": "STARLINK-35947", "group": "last-30-days", "lat": -52.52642347971188, "lon": -32.22179953334424, "alt_km": 300.522807958042, "timestamp": "2025-12-13T13:34:33.866263+00:00", "meta": {"OBJECT_NAME": "STARLINK-35947", "OBJECT_ID": "2025-283F", "EPOCH": "2025-12-12T20:00:01.999872", "MEAN_MOTION": 15.94342766, "ECCENTRICITY": 8.446e-05, "INCLINATION": 53.1549, "RA_OF_ASC_NODE": 73.5048, "ARG_OF_PERICENTER": 58.598, "MEAN_ANOMALY": 320.8322, "EPHEMERIS_TYPE": 0, "CLASSIFICATION_TYPE": "U", "NORAD_CAT_ID": 66883, "ELEMENT_SET_NO": 999, "REV_AT_EPOCH": 249, "BSTAR": -0.0033206373, "MEAN_MOTION_DOT": -0.01274197, "MEAN_MOTION_DDOT": 0.00048622617}, "tle": {"line1": "1 66883U 25283F   25346.83335648 -.01274197  48623-3 -33206-2 0  9996", "line2": "2 66883  53.1549  73.5048 0000844  58.5980 320.8322 15.94342766  2490"}}, "geometry": {"type": "Point", "coordinates": [-32.22179953334424, -52.52642347971188]}}, {"type": "Feature", "properties": {"norad_id": 66884, "name": "STARLINK-36057", "group": "last-30-days", "lat": -53.04502657798201, "lon": -24.860748798117058, "alt_km": 300.4431604520423, "timestamp": "2025-12-13T13:34:33.866271+00:00", "meta": {"OBJECT_NAME": "STARLINK-36057", "OBJECT_ID": "2025-283G", "EPOCH": "2025-12-12T20:00:01.999872", "MEAN_MOTION": 15.94466164, "ECCENTRICITY": 0.00010453, "INCLINATION": 53.1548, "RA_OF_ASC_NODE": 73.4957, "ARG_OF_PERICENTER": 52.5592, "MEAN_ANOMALY": 331.0711, "EPHEMERIS_TYPE": 0, "CLASSIFICATION_TYPE": "U", "NORAD_CAT_ID": 66884, "ELEMENT_SET_NO": 999, "REV_AT_EPOCH": 244, "BSTAR": -0.0033464343, "MEAN_MOTION_DOT": -0.01292391, "MEAN_MOTION_DDOT": 0.00049956062}, "tle": {"line1": "1 66884U 25283G   25346.83335648 -.01292391  49956-3 -33464-2 0  9999", "line2": "2 66884  53.1548  73.4957 0001045  52.5592 331.0711 15.94466164  2445"}}, "geometry": {"type": "Point", "coordinates": [-24.860748798117058, -53.04502657798201]}}]}